{
  "type": "FeatureCollection",
  "features": [
    {
      "type": "Feature",
      "properties": { "name": "Sample triangle" },
      "geometry": {
        "type": "Polygon",
        "coordinates": [
          [
            [-10.0, 40.0],
            [10.0, 40.0],
            [0.0, 55.0],
            [-10.0, 40.0]
          ]
        ]
      }
    },
    {
      "type": "Feature",
      "properties": { "name": "Sample line" },
      "geometry": {
        "type": "LineString",
        "coordinates": [
          [-20.0, 10.0],
          [0.0, 20.0],
          [20.0, 10.0]
        ]
      }
    },
    {
      "type": "Feature",
      "properties": { "name": "Sample point" },
      "geometry": {
        "type": "Point",
        "coordinates": [0.0, 0.0]
      }
    }
  ]
}
